NORAD_CAT_ID,OBJECT_NAME,OBJECT_TYPE,EPOCH,MEAN_MOTION,ECCENTRICITY,INCLINATION,RA_OF_ASC_NODE,ARG_OF_PERICENTER,MEAN_ANOMALY,BSTAR,MEAN_MOTION_DOT,MEAN_MOTION_DDOT,TLE_LINE0,TLE_LINE1,TLE_LINE2,SEMIMAJOR_AXIS,PERIOD,APOGEE,PERIGEE,DECAYED
50170.0,STARLINK-3245,PAYLOAD,2022-10-20 15:54:41,15.08833672,0.0002524,53.2186,37.8633,33.4618,326.6533,0.00011948,1.613e-05,0.0,0 STARLINK-3245,1 50170U 21125Q   22293.66297851  .00001613  00000-0  11948-3 0  9993,2 50170  53.2186  37.8633 0002524  33.4618 326.6533 15.08833672 49990,6917.9,95.438,541.511,538.019,0.0
50170.0,STARLINK-3245,PAYLOAD,2022-10-21 10:59:19,15.08833585,0.0002325,53.2197,34.2947,33.8594,326.2547,0.00013656,1.885e-05,0.0,0 STARLINK-3245,1 50170U 21125Q   22294.45785926  .00001885  00000-0  13656-3 0  9995,2 50170  53.2197  34.2947 0002325  33.8594 326.2547 15.08833585 50117,6917.9,95.438,541.373,538.1569999999998,0.0
50170.0,STARLINK-3245,PAYLOAD,2022-10-21 15:45:28,15.08840311,0.0002537,53.2197,33.4025,29.1674,330.946,5.626600000000001e-05,6.07e-06,0.0,0 STARLINK-3245,1 50170U 21125Q   22294.65657857  .00000607  00000-0  56266-4 0  9994,2 50170  53.2197  33.4025 0002537  29.1674 330.9460 15.08840311 49666,6917.879,95.438,541.5,537.989,0.0
50170.0,STARLINK-3245,PAYLOAD,2022-10-22 12:25:29,15.08842858,0.0002264,53.2187,29.5344,30.3361,329.7762,-0.00010686,-1.989e-05,0.0,0 STARLINK-3245,1 50170U 21125Q   22295.51770340 -.00001989  00000-0 -10686-3 0  9994,2 50170  53.2187  29.5344 0002264  30.3361 329.7762 15.08842858 50277,6917.871999999999,95.437,541.303,538.17,0.0
50170.0,STARLINK-3245,PAYLOAD,2022-10-22 15:36:16,15.08835087,0.000237,53.2199,28.9421,30.1543,329.9585,8.6383e-08,-2.87e-06,0.0,0 STARLINK-3245,1 50170U 21125Q   22295.65018599 -.00000287  00000-0  86383-7 0  9990,2 50170  53.2199  28.9421 0002370  30.1543 329.9585 15.08835087 50290,6917.895,95.438,541.4,538.121,0.0
50170.0,STARLINK-3245,PAYLOAD,2022-10-22 23:33:11,15.08844974,0.0002455,53.2198,27.455,28.7931,331.3196,0.00010139,1.326e-05,0.0,0 STARLINK-3245,1 50170U 21125Q   22295.98137743  .00001326  00000-0  10139-3 0  9995,2 50170  53.2198  27.4550 0002455  28.7931 331.3196 15.08844974 49865,6917.865,95.437,541.429,538.0319999999998,0.0
50170.0,STARLINK-3245,PAYLOAD,2022-10-23 12:16:16,15.08842939,0.000267,53.2192,25.0773,22.9455,337.1656,8.743e-05,1.103e-05,0.0,0 STARLINK-3245,1 50170U 21125Q   22296.51129863  .00001103  00000-0  87430-4 0  9991,2 50170  53.2192  25.0773 0002670  22.9455 337.1656 15.08842939 50424,6917.871,95.437,541.5830000000002,537.889,0.0
50170.0,STARLINK-3245,PAYLOAD,2022-10-23 13:51:39,15.08846906,0.0002529999999999,53.2192,24.7797,24.1807,335.9304,9.263e-05,1.186e-05,0.0,0 STARLINK-3245,1 50170U 21125Q   22296.57753550  .00001186  00000-0  92630-4 0  9992,2 50170  53.2192  24.7797 0002530  24.1807 335.9304 15.08846906 50431,6917.859,95.437,541.474,537.974,0.0
50170.0,STARLINK-3245,PAYLOAD,2022-10-24 12:07:03,15.08832372,0.000252,53.2203,20.6161,26.9614,333.1509,4.1623e-06,-2.22e-06,0.0,0 STARLINK-3245,1 50170U 21125Q   22297.50490431 -.00000222  00000-0  41623-5 0  9990,2 50170  53.2203  20.6161 0002520  26.9614 333.1509 15.08832372 50573,6917.904,95.438,541.512,538.025,0.0
50170.0,STARLINK-3245,PAYLOAD,2022-10-24 15:17:51,15.08811922,0.0002466,53.2199,20.0209,27.1358,332.9762,-0.00010353,-1.934e-05,0.0,0 STARLINK-3245,1 50170U 21125Q   22297.63740150 -.00001934  00000-0 -10353-3 0  9996,2 50170  53.2199  20.0209 0002466  27.1358 332.9762 15.08811922 50599,6917.965999999999,95.439,541.5369999999998,538.125,0.0
50170.0,STARLINK-3245,PAYLOAD,2022-10-25 10:22:29,15.08825865,0.0002456,53.2201,16.4542,30.1368,329.9765,-0.00010504,-1.959e-05,0.0,0 STARLINK-3245,1 50170U 21125Q   22298.43228022 -.00001959  00000-0 -10504-3 0  9999,2 50170  53.2201  16.4542 0002456  30.1368 329.9765 15.08825865 50237,6917.924,95.438,541.488,538.09,0.0
50170.0,STARLINK-3245,PAYLOAD,2022-10-25 11:57:52,15.08828563,0.0002523,53.2194,16.1567,25.7048,334.4069,-0.00010161,-1.905e-05,0.0,0 STARLINK-3245,1 50170U 21125Q   22298.49851862 -.00001905  00000-0 -10161-3 0  9999,2 50170  53.2194  16.1567 0002523  25.7048 334.4069 15.08828563 50722,6917.915,95.438,541.526,538.035,0.0
50170.0,STARLINK-3245,PAYLOAD,2022-10-25 15:08:38,15.0882691,0.0002566999999999,53.2197,15.5622,28.4654,331.6478,-2.028e-05,-6.11e-06,0.0,0 STARLINK-3245,1 50170U 21125Q   22298.63099970 -.00000611  00000-0 -20280-4 0  9996,2 50170  53.2197  15.5622 0002567  28.4654 331.6478 15.08826910 50740,6917.92,95.438,541.561,538.01,0.0
50170.0,STARLINK-3245,PAYLOAD,2022-10-26 05:27:06,15.08835014,0.0002637,53.2196,12.8858,27.1704,332.9426,2.3306e-05,8.2e-07,0.0,0 STARLINK-3245,1 50170U 21125Q   22299.22715714  .00000082  00000-0  23306-4 0  9995,2 50170  53.2196  12.8858 0002637  27.1704 332.9426 15.08835014 50359,6917.896,95.438,541.585,537.936,0.0
50170.0,STARLINK-3245,PAYLOAD,2022-10-26 11:48:39,15.08838012,0.0002725,53.219,11.697,28.2235,331.8905,0.00020429,2.964e-05,0.0,0 STARLINK-3245,1 50170U 21125Q   22299.49211917  .00002964  00000-0  20429-3 0  9993,2 50170  53.2190  11.6970 0002725  28.2235 331.8905 15.08838012 50872,6917.886,95.438,541.637,537.866,0.0
50170.0,STARLINK-3245,PAYLOAD,2022-10-27 11:39:25,15.08852132,0.0002829,53.2187,7.2359,28.0456,332.0688,0.00040371,6.145e-05,0.0,0 STARLINK-3245,1 50170U 21125Q   22300.48571711  .00006145  00000-0  40371-3 0  9999,2 50170  53.2187   7.2359 0002829  28.0456 332.0688 15.08852132 50542,6917.843000000003,95.437,541.665,537.751,0.0
50170.0,STARLINK-3245,PAYLOAD,2022-10-27 13:14:49,15.08852967,0.0002836999999999,53.2188,6.939,27.7995,332.3149,0.00033476,5.045e-05,0.0,0 STARLINK-3245,1 50170U 21125Q   22300.55195622  .00005045  00000-0  33476-3 0  9996,2 50170  53.2188   6.9390 0002837  27.7995 332.3149 15.08852967 51033,6917.840999999999,95.437,541.668,537.743,0.0
50170.0,STARLINK-3245,PAYLOAD,2022-10-28 11:30:11,15.08859795,0.0002853,53.2187,2.7758,26.1224,333.9912,0.00015267,2.143e-05,0.0,0 STARLINK-3245,1 50170U 21125Q   22301.47930171  .00002143  00000-0  15267-3 0  9998,2 50170  53.2187   2.7758 0002853  26.1224 333.9912 15.08859795 51176,6917.82,95.436,541.659,537.711,0.0
50170.0,STARLINK-3245,PAYLOAD,2022-10-28 13:05:34,15.08857585,0.0002812,53.2189,2.4786,28.657,331.4577,0.00016388,2.322e-05,0.0,0 STARLINK-3245,1 50170U 21125Q   22301.54554259  .00002322  00000-0  16388-3 0  9999,2 50170  53.2189   2.4786 0002812  28.6570 331.4577 15.08857585 50705,6917.8269999999975,95.436,541.637,537.746,0.0
50170.0,STARLINK-3245,PAYLOAD,2022-10-29 09:45:35,15.08850078,0.0002808,53.2189,358.6132,29.9633,330.152,1.3752e-05,-7e-07,0.0,0 STARLINK-3245,1 50170U 21125Q   22302.40665864 -.00000070  00000-0  13752-4 0  9992,2 50170  53.2189 358.6132 0002808  29.9633 330.1520 15.08850078 51317,6917.85,95.437,541.6569999999998,537.7719999999998,0.0
50170.0,STARLINK-3245,PAYLOAD,2022-10-29 12:56:21,15.08842907,0.0002861,53.2187,358.0182,28.6278,331.4871,-2.2971e-05,-6.54e-06,0.0,0 STARLINK-3245,1 50170U 21125Q   22302.53914096 -.00000654  00000-0 -22971-4 0  9992,2 50170  53.2187 358.0182 0002861  28.6278 331.4871 15.08842907 51331,6917.871999999999,95.437,541.716,537.757,0.0
50170.0,STARLINK-3245,PAYLOAD,2022-10-29 20:53:18,15.08843565,0.0002884999999999,53.2193,356.5315,28.135,331.9797,-8.9593e-05,-1.714e-05,0.0,0 STARLINK-3245,1 50170U 21125Q   22302.87034729 -.00001714  00000-0 -89593-4 0  9996,2 50170  53.2193 356.5315 0002885  28.1350 331.9797 15.08843565 50906,6917.869000000002,95.437,541.73,537.739,0.0
50170.0,STARLINK-3245,PAYLOAD,2022-10-30 11:11:45,15.08848421,0.0002847,53.2196,353.8561,28.8755,331.2394,5.563099999999999e-06,-2e-06,0.0,0 STARLINK-3245,1 50170U 21125Q   22303.46649861 -.00000200  00000-0  55631-5 0  9996,2 50170  53.2196 353.8561 0002847  28.8755 331.2394 15.08848421 51471,6917.855,95.437,541.689,537.75,0.0
50170.0,STARLINK-3245,PAYLOAD,2022-10-30 20:44:04,15.08841802,0.0002978,53.2195,352.0717,29.5371,330.5789,-4.7159e-05,-1.039e-05,0.0,0 STARLINK-3245,1 50170U 21125Q   22303.86394338 -.00001039  00000-0 -47159-4 0  9993,2 50170  53.2195 352.0717 0002978  29.5371 330.5789 15.08841802 51534,6917.875,95.437,541.8,537.68,0.0
50170.0,STARLINK-3245,PAYLOAD,2022-10-31 09:27:09,15.08841446,0.0002548,53.2194,349.69199999999995,33.8129,326.3025,-4.6305e-05,-1.025e-05,0.0,0 STARLINK-3245,1 50170U 21125Q   22304.39386410 -.00001025  00000-0 -46305-4 0  9991,2 50170  53.2194 349.6920 0002548  33.8129 326.3025 15.08841446 51612,6917.876,95.437,541.504,537.9780000000002,0.0
50170.0,STARLINK-3245,PAYLOAD,2022-10-31 12:37:56,15.08836462,0.0002853,53.2192,349.097,29.8223,330.2931,1.8751e-05,1e-07,0.0,0 STARLINK-3245,1 50170U 21125Q   22304.52634556  .00000010  00000-0  18751-4 0  9998,2 50170  53.2192 349.0970 0002853  29.8223 330.2931 15.08836462 51159,6917.891,95.438,541.73,537.783,0.0
50170.0,STARLINK-3245,PAYLOAD,2022-10-31 20:34:52,15.08827723,0.000287,53.219,347.61,30.4569,329.659,-8.7036e-06,-4.27e-06,0.0,0 STARLINK-3245,1 50170U 21125Q   22304.85755353 -.00000427  00000-0 -87036-5 0  9990,2 50170  53.2190 347.6100 0002870  30.4569 329.6590 15.08827723 51687,6917.918000000002,95.438,541.768,537.797,0.0
50170.0,STARLINK-3245,PAYLOAD,2022-11-01 10:53:20,15.08836396,0.0002863,53.2196,344.9356,24.2258,335.8868,1.4035e-05,-6.5e-07,0.0,0 STARLINK-3245,1 50170U 21125Q   22305.45370978 -.00000065  00000-0  14035-4 0  9998,2 50170  53.2196 344.9356 0002863  24.2258 335.8868 15.08836396 51777,6917.891,95.438,541.737,537.776,0.0
50170.0,STARLINK-3245,PAYLOAD,2022-11-02 10:44:07,15.08838863,0.0002898999999999,53.2193,340.475,22.5196,337.5923,9.0008e-05,1.144e-05,0.0,0 STARLINK-3245,1 50170U 21125Q   22306.44730718  .00001144  00000-0  90008-4 0  9992,2 50170  53.2193 340.4750 0002899  22.5196 337.5923 15.08838863 51923,6917.884,95.438,541.754,537.743,0.0
